KUIPER-00167            
1 65780U 25217U   25337.91670139 -.00651185  00000+0 -47350-1 0  9996
2 65780  51.8916 110.8176 0011323 315.1288  78.8616 15.05747018  4783
KUIPER-00168            
1 65781U 25217V   25337.58499735  .00073355  00000+0  18853-2 0  9993
2 65781  51.8707 108.1443 0001880 230.2535 129.8287 15.38617596 10644
KUIPER-00169            
1 65782U 25217W   25337.91670139 -.00365206  00000+0 -10875-1 0  9996
2 65782  51.8714 106.9160 0004721 305.3784 270.9505 15.35628670  4042
KUIPER-00170            
1 65783U 25217X   25337.91670139 -.00414565  00000+0 -17347-1 0  9991
2 65783  51.8734 108.0064 0008433 323.6426  78.7815 15.24873431  5517
KUIPER-00171            
1 65784U 25217Y   25337.62346085  .00140932  00000+0  12431-2 0  9992
2 65784  51.8579 102.4319 0009533 332.2876  27.7615 15.67697316 10727
KUIPER-00172            
1 65785U 25217Z   25337.66324685  .00058522  00000+0  15178-2 0  9993
2 65785  51.8711 107.9177 0003735 298.2831  61.7779 15.38436797 10651
KUIPER-00173            
1 65786U 25217AA  25337.91670139 -.00420471  00000+0 -13395-1 0  9996
2 65786  51.8710 106.8659 0003266 280.9488 306.1747 15.33760099  5722
KUIPER-00174            
1 65787U 25217AB  25337.59339936  .00067454  00000+0  17585-2 0  9990
2 65787  51.8705 108.1984 0003004 246.1803 113.8869 15.38216541 10646
